OBJECT B                
1 51825U 22019B   24092.82845750  .00011418  00000+0  53576-3 0  9994
2 51825  97.4344 165.2062 0016157 144.0413 216.1912 15.19697959115621
